{
"type": "FeatureCollection",
"name": "rio_sanjuan",
"crs": { "type": "name", "properties": { "name": "urn:ogc:def:crs:OGC:1.3:CRS84" } },
"features": [
{"type":"Feature","properties":{"id":1,"segmento":"Segmento 1","nombre":"Cuenca Alta: Naciente Río Totoras a corte inicial","desde":"Naciente Río Totoras","hasta":"Corte cuenca alta (426505, 6528155)","longitud_m":45324.22,"longitud_k":45.324},"geometry":{"type":"MultiLineString","coordinates":[[[-70.18375226762025,-31.282693502960392],[-70.165856759302073,-31.289771176557608],[-70.147438025020108,-31.28946549523198],[-70.126532983530723,-31.283923870711394],[-70.111371676313567,-31.270455029840353],[-70.101891342997092,-31.267434711001449],[-70.08274016166294,-31.264946721094521],[-70.061353410390339,-31.269207626438661],[-70.044176077933997,-31.273404818085417],[-70.023766533098183,-31.289498637068537],[-70.007082137590757,-31.307369622966437],[-70.001964588034738,-31.309574990638176],[-69.999240854420506,-31.318030602800633],[-69.988314788513591,-31.325359368179608],[-69.975249001244975,-31.326828698560778],[-69.943605160351453,-31.324754926547243],[-69.932214642750367,-31.329625228945471],[-69.915904527000876,-31.328951506214732],[-69.907648854981545,-31.330429913440351],[-69.905890008156277,-31.333873436165145],[-69.900321082794221,-31.336617298485177],[-69.891044576270502,-31.338236656265952],[-69.885574860243793,-31.342784436131979],[-69.869879980018695,-31.350871313688497],[-69.862616049041947,-31.349789040501662],[-69.849186089206185,-31.358752184090331],[-69.824564535771671,-31.365420083348493],[-69.821788447094676,-31.363308239918169],[-69.814073558380102,-31.364067316814673],[-69.805366154353692,-31.361637672397158],[-69.793010198615349,-31.367985325963986],[-69.787636713558641,-31.36849169242392],[-69.780664303495968,-31.375751515426177],[-69.772589142717763,-31.37852722421346]]]}},
{"type":"Feature","properties":{"id":2,"segmento":"Segmento 2","nombre":"Cuenca Alta/Media a Dique Los Caracoles","desde":"Corte cuenca alta (426505, 6528155)","hasta":"Dique Los Caracoles (501690.4, 6512860.8)","longitud_m":121285.89,"longitud_k":121.286},"geometry":{"type":"MultiLineString","coordinates":[[[-69.772589142717763,-31.37852722421346],[-69.770769692336415,-31.379952377187546],[-69.76799723357675,-31.378194288334402],[-69.762637348856259,-31.380474254927091],[-69.754560710560455,-31.387975866147347],[-69.736531895809946,-31.392931603665009],[-69.711452485848568,-31.39603109780521],[-69.708578249605395,-31.399004894390664],[-69.68901623020777,-31.402424350672348],[-69.658381852786519,-31.400810606639748],[-69.639993128813032,-31.394514664135865],[-69.628118072799296,-31.39256201513863],[-69.586720923992871,-31.389563579618599],[-69.54745806049614,-31.373646090247455],[-69.514738080856489,-31.366800832076361],[-69.500811930478264,-31.366974274240988],[-69.487688609744609,-31.362410436485384],[-69.48270547833269,-31.358643104114847],[-69.471947479152277,-31.357973219115799],[-69.442681511047496,-31.350386831505528],[-69.43308275099713,-31.34383316009453],[-69.411273437494742,-31.334244900277671],[-69.411801082967017,-31.332404073371254],[-69.418479877120447,-31.328091685991943],[-69.421762247343821,-31.322491363072977],[-69.426650010717893,-31.319098473410438],[-69.425197041541097,-31.313585877854365],[-69.427054820892238,-31.30990143323821],[-69.425077157735572,-31.306766129446913],[-69.426567470362698,-31.300783976338156],[-69.420659631966402,-31.296780612550993],[-69.417970154565452,-31.289323711394697],[-69.41591571894827,-31.288915619126822],[-69.415400930414961,-31.281658973762461],[-69.408147610425061,-31.279504725067067],[-69.408855438297664,-31.275665932689172],[-69.405787202426723,-31.268549433608069],[-69.394568470178044,-31.265756309594817],[-69.394433956483823,-31.262438622582145],[-69.389706738870515,-31.257683270577282],[-69.38162302729684,-31.258537052141115],[-69.381116467877817,-31.25262817755393],[-69.378573166151057,-31.250458183692022],[-69.372054108406786,-31.25006245278092],[-69.371676190320642,-31.246019596659742],[-69.365039966480865,-31.24645337539684],[-69.362244140889999,-31.243472023315874],[-69.35705659484664,-31.241706003071595],[-69.351645868267056,-31.247112856492869],[-69.341098284419431,-31.245935388227625],[-69.334878097811355,-31.249438834262342],[-69.324223022026487,-31.251810187451319],[-69.322189895172926,-31.244908844550665],[-69.316630690352923,-31.242641446316959],[-69.309142201682334,-31.240793224757965],[-69.295507740553845,-31.241654816536702],[-69.29211457661934,-31.237100143001243],[-69.285475769094262,-31.236596595743887],[-69.282346503105003,-31.23940317834121],[-69.274622065132291,-31.239108833873196],[-69.27053254118789,-31.243887316650653],[-69.252282949636154,-31.243534945111023],[-69.243380801057668,-31.244978499418341],[-69.233506886595237,-31.252597260558211],[-69.228645704217485,-31.251012688090047],[-69.219956133925749,-31.251782749153975],[-69.212230007913931,-31.25582077194662],[-69.19993535264544,-31.247115201112358],[-69.195165966280484,-31.246819041652781],[-69.190316059487699,-31.25039230033293],[-69.182719635687803,-31.249644601371177],[-69.170453414959084,-31.2548207516217],[-69.166209644569577,-31.252246658884474],[-69.163207966953749,-31.252857481599445],[-69.161810972021414,-31.255827891517075],[-69.155799396549853,-31.25893643867202],[-69.151644883947696,-31.256816990352494],[-69.143431154098792,-31.25682641828163],[-69.140433676066905,-31.260471586342781],[-69.131070900661882,-31.260102115138242],[-69.126660029573571,-31.264051882851525],[-69.118900224003724,-31.261368711213404],[-69.108994812246408,-31.264143950349972],[-69.108201777157348,-31.265813804770875],[-69.112358775786348,-31.270514299884201],[-69.110417845470465,-31.272564524504851],[-69.1115704798857,-31.276205380066255],[-69.109279031669644,-31.280835532354672],[-69.105924572757942,-31.283114496164792],[-69.101242485758348,-31.283270014697418],[-69.099832491400591,-31.286609476745831],[-69.091001739137866,-31.290788982003249],[-69.077924339685367,-31.289128402065483],[-69.07598350001139,-31.292695536481521],[-69.063087399500915,-31.297937664595327],[-69.054078324604163,-31.304011504575659],[-69.048426033081967,-31.30354263236601],[-69.047541870622695,-31.308945742968604],[-69.035722468945949,-31.312788762318334],[-69.027924424054476,-31.32069753967582],[-69.026740874024497,-31.328013372322413],[-69.01925866084845,-31.340673828742268],[-69.020181164204345,-31.348733008422599],[-69.018509262655698,-31.355488383908597],[-69.013003682978919,-31.361056471966037],[-69.005973268872609,-31.362854026381559],[-69.008200811435131,-31.37290936356721],[-69.007483679115367,-31.378358821330298],[-69.010446057281854,-31.383791161187837],[-69.011468334168725,-31.39132653452306],[-69.008097813741799,-31.394130681773564],[-69.006565915086483,-31.398599466685404],[-69.01218474735991,-31.40219153568297],[-69.007485708622298,-31.403944324661826],[-69.007690660494362,-31.41174261348235],[-69.006056290989989,-31.416299007407016],[-69.003297784738521,-31.419716335660667],[-69.000028183938184,-31.420329726435359],[-68.999823826977845,-31.42330884603976],[-69.003297990176335,-31.425586953164867],[-69.003093903601638,-31.433998579939534],[-69.0047290926735,-31.436802401459783],[-69.003605191583034,-31.442760660749975],[-69.005445004862395,-31.446440671740348],[-69.000948061470382,-31.449770374687212],[-69.0026857112708,-31.453976146387376],[-68.997779409786503,-31.458882914209767],[-68.996552504067253,-31.466943982825892],[-68.998597003711751,-31.468696432328489],[-68.996858937166323,-31.474304112763619],[-69.000334915758515,-31.477896588310916],[-68.99910799924956,-31.484030010785517],[-68.996142779587217,-31.486921425594897],[-68.997471930635896,-31.4896376867746],[-69.000641714662663,-31.490251051784998],[-69.000888481209685,-31.492624391282099],[-68.99354808206148,-31.499298791603934],[-68.993697620494089,-31.503277860269527],[-68.998042114224489,-31.505460065264543],[-68.998191729228651,-31.515856954149733],[-68.995194890326729,-31.5198359276181],[-68.991299254050531,-31.518167088040332],[-68.9859046576521,-31.521632231277948],[-68.983657534602642,-31.518808122462282],[-68.979761620497115,-31.519577704192351],[-68.982182536138566,-31.519099502620591]]]}},
{"type":"Feature","properties":{"id":3,"segmento":"Segmento 3","nombre":"Río San Juan: Dique Los Caracoles a Dique Punta Negra","desde":"Dique Los Caracoles (501690.4, 6512860.8)","hasta":"Dique Punta Negra (517278.2, 6512887.4)","longitud_m":17940.71,"longitud_k":17.941},"geometry":{"type":"MultiLineString","coordinates":[[[-68.982182536138566,-31.519099502620591],[-68.977664656216362,-31.516368443420358],[-68.973019440975889,-31.517779469561358],[-68.968075808708306,-31.515082844993952],[-68.965826856250828,-31.519189671616388],[-68.961719406992458,-31.517227311959566],[-68.955639028905821,-31.516876128421472],[-68.953692081712418,-31.515078447548206],[-68.949495931151986,-31.516745494478556],[-68.944843562500552,-31.515544271393761],[-68.925392729198137,-31.517133389263378],[-68.914977073638497,-31.521683828343605],[-68.911387061728888,-31.519656087286908],[-68.904249353578336,-31.519144618081832],[-68.90027918542846,-31.516420338858314],[-68.88783794089511,-31.517573356002952],[-68.883273422678087,-31.513750017885123],[-68.85997155141547,-31.51084775069495],[-68.844831872698848,-31.515035743820061],[-68.83578044555091,-31.512285956277275],[-68.828874565513004,-31.514703811077723],[-68.824897247843438,-31.517999726428322],[-68.814453986712394,-31.519006952491459],[-68.818004294243551,-31.518664632459782]]]}},
{"type":"Feature","properties":{"id":4,"segmento":"Segmento 4","nombre":"Río San Juan: Dique Punta Negra a Dique de Ullum","desde":"Dique Punta Negra (517278.2, 6512887.4)","hasta":"Dique de Ullum (533425.8, 6517781.5)","longitud_m":18967.18,"longitud_k":18.967},"geometry":{"type":"MultiLineString","coordinates":[[[-68.818004294243551,-31.518664632459782],[-68.804777380233133,-31.519773321573066],[-68.789693506061724,-31.50914757021232],[-68.785235383251063,-31.510153161823741],[-68.779604070227066,-31.507538623634037],[-68.746922342855711,-31.50804141943976],[-68.74155918759476,-31.507371025032135],[-68.737737939471344,-31.504823526283197],[-68.736665308419163,-31.507303985591381],[-68.729559127698408,-31.50676767006528],[-68.726441793702989,-31.503952013553295],[-68.719033935498814,-31.504991124885088],[-68.716888673394436,-31.503315138866054],[-68.712698708346821,-31.50422017131633],[-68.710218249038647,-31.501806751448903],[-68.703179107758672,-31.501840271169275],[-68.697346676412366,-31.494264814363191],[-68.691447205625323,-31.493728498837104],[-68.686888523653522,-31.488365343576167],[-68.67857563299907,-31.488097185813107],[-68.674821424316406,-31.481661399499981],[-68.667044849188045,-31.480588768447795],[-68.659100675457779,-31.47435410045696],[-68.647901700738942,-31.474327598967758]]]}},
{"type":"Feature","properties":{"id":5,"segmento":"Segmento 5","nombre":"Río San Juan: Dique de Ullum a Separación Canal Matriz","desde":"Dique de Ullum (533425.8, 6517781.5)","hasta":"Separación Canal Matriz (533888.3, 6514849.9)","longitud_m":3301.9,"longitud_k":3.302},"geometry":{"type":"MultiLineString","coordinates":[[[-68.647901700738942,-31.474327598967758],[-68.647637159615698,-31.489834153124804],[-68.646082155012451,-31.491158092662477],[-68.647366581812705,-31.495317709463141],[-68.643111360605275,-31.50068226850107]]]}},
{"type":"Feature","properties":{"id":6,"segmento":"Segmento 6","nombre":"Canal Matriz a Canales Quiroga, Céspedes y Ciudad","desde":"Separación Canal Matriz (533888.3, 6514849.9)","hasta":"Partidor San Emiliano (535212.35, 6513622.05)","longitud_m":3523.77,"longitud_k":3.524},"geometry":{"type":"MultiLineString","coordinates":[[[-68.643111360605275,-31.50068226850107],[-68.642664155618974,-31.509015397047747],[-68.640553884843783,-31.511580244848655],[-68.631541876150095,-31.514082520952481],[-68.62566272669315,-31.508452637884794],[-68.629177711086101,-31.51173045459684]]]}},
{"type":"Feature","properties":{"id":7,"segmento":"Segmento 7","nombre":"Río San Juan: Tramo inferior hasta terminación","desde":"Partidor San Emiliano (535212.35, 6513622.05)","hasta":"Fin del Río San Juan","longitud_m":150318.21,"longitud_k":150.318},"geometry":{"type":"MultiLineString","coordinates":[[[-68.629177711086101,-31.51173045459684],[-68.62383792961711,-31.507262085940877],[-68.613379776858281,-31.502502285646788],[-68.607212148308207,-31.496703374020882],[-68.588943900700627,-31.489362555257475],[-68.585591928662524,-31.489329035537093],[-68.584753935653012,-31.487485450916143],[-68.577144959126542,-31.483429564750061],[-68.566217530282373,-31.481250782925315],[-68.557066646618395,-31.482122295655198],[-68.544697869797844,-31.476692100953503],[-68.540843101954039,-31.470323354081142],[-68.524786829494488,-31.456194671635235],[-68.521483550574999,-31.456020521077299],[-68.518921026966993,-31.45868147377579],[-68.514484812311167,-31.458502881640669],[-68.511259068401017,-31.461565790916701],[-68.506343054573691,-31.462841746590495],[-68.490857317357126,-31.463266669526039],[-68.483890101869179,-31.459758980354664],[-68.473277917656645,-31.466634904000191],[-68.460908946566903,-31.466745280327245],[-68.456579992315383,-31.464299221931306],[-68.455422713705431,-31.46850242358979],[-68.452251826332969,-31.469864628874479],[-68.450772792054437,-31.47252882679085],[-68.450898119650034,-31.475321284416108],[-68.446393114129648,-31.478700740904223],[-68.442716560354597,-31.477673226137842],[-68.442230763821726,-31.479977476118126],[-68.444595172266077,-31.483346146464427],[-68.439461991585375,-31.489028985038189],[-68.443862831772861,-31.49540078946622],[-68.427570312592636,-31.511068813171118],[-68.431800051501298,-31.514526962113937],[-68.431696775471366,-31.515983145882768],[-68.4263938283747,-31.518103980758276],[-68.424671167156603,-31.521737847062507],[-68.421029437358897,-31.52249019944702],[-68.417191554424434,-31.528198170910475],[-68.408534375165374,-31.533944516179073],[-68.40552969384494,-31.538442107216476],[-68.388587612764383,-31.546515321966609],[-68.389065139939675,-31.55299151359235],[-68.380771440944457,-31.556755031253626],[-68.38019372949789,-31.558370705969182],[-68.387028297627452,-31.560993217177909],[-68.386732071465318,-31.562933965193899],[-68.38384611690293,-31.563446091530725],[-68.379510778720714,-31.561604339990655],[-68.375430339387705,-31.571173911776196],[-68.372931617774839,-31.5702715190566],[-68.371401702563759,-31.565853672762366],[-68.369085916601804,-31.565882725627638],[-68.366757552722405,-31.567772914615496],[-68.366839488836902,-31.569634560382124],[-68.36999157905484,-31.571754145750933],[-68.369836196409622,-31.573776465851552],[-68.358088239059327,-31.574304697415414],[-68.361888073666591,-31.581930517363176],[-68.361616864991674,-31.587047557645391],[-68.358562875639564,-31.591260498630458],[-68.347693175357406,-31.618051635346831],[-68.344255711345454,-31.622768007383623],[-68.345563114439756,-31.652149566695172],[-68.338470607214717,-31.65846539478428],[-68.336200816709464,-31.665008297948461],[-68.345279735560155,-31.675696451756259],[-68.344096777995304,-31.682447356507232],[-68.345166398364682,-31.685103043018994],[-68.35030222638018,-31.688224566012078],[-68.344830697587739,-31.695843686751907],[-68.355235603630845,-31.703564048576926],[-68.354833057973039,-31.707021414236927],[-68.349957664042023,-31.710496512510691],[-68.35791365025554,-31.716707096605244],[-68.356597220205188,-31.718844880462953],[-68.359482307469676,-31.722622258740696],[-68.369024591751966,-31.725522331142987],[-68.369781543123651,-31.729086621948497],[-68.365322442478302,-31.726960538903022],[-68.364724863988002,-31.731286859522342],[-68.370697812614537,-31.733602520367604],[-68.368423894002404,-31.737313656793862],[-68.369146729552639,-31.738935664137262],[-68.375578600428142,-31.739978857554924],[-68.37883144644141,-31.745618789456227],[-68.378415352262792,-31.747660023848155],[-68.368315827099579,-31.753234380918762],[-68.372649273036146,-31.763654157422387],[-68.37276984652857,-31.770350966158354],[-68.36891165388937,-31.77358897646976],[-68.36899607523398,-31.775106661778299],[-68.378102866330366,-31.78022924290962],[-68.377197637411129,-31.782783941887754],[-68.372200451285636,-31.782779634737686],[-68.372824921061977,-31.78850785787947],[-68.376159089702753,-31.789313214031516],[-68.376571299723224,-31.784358833655087],[-68.379695040600126,-31.784738231976014],[-68.38189271925485,-31.794378494235179],[-68.384362552745458,-31.796979924492099],[-68.383974579852094,-31.798333469887698],[-68.380067895434451,-31.798071744656415],[-68.375225750385908,-31.796025057777392],[-68.3757685156788,-31.799851221230302],[-68.380012872517852,-31.802764874828682],[-68.378547457307619,-31.809352756509778],[-68.381151414395816,-31.809648664964293],[-68.385848632333605,-31.819402107725114],[-68.387990128065795,-31.818016545662079],[-68.393846557025455,-31.824599132662549],[-68.402466269015932,-31.829050064855309],[-68.401809682759264,-31.831656663654076],[-68.3995325775428,-31.832010079729223],[-68.399460557904035,-31.835812997056848],[-68.395827637175472,-31.836928681857579],[-68.395675832350506,-31.838404756253148],[-68.398855995971076,-31.839512246459144],[-68.397426547749134,-31.842499533846638],[-68.398592985461065,-31.850829719046505],[-68.394311749639428,-31.853135857804261],[-68.391095568450282,-31.859250194070853],[-68.372200503672929,-31.856305899528863],[-68.356671962992934,-31.860233829697929],[-68.354942006459908,-31.86358323480102],[-68.355782660289606,-31.865408189032024],[-68.358875346978735,-31.863805424858544],[-68.361179605922999,-31.859649653559945],[-68.363412554960505,-31.86239189271198],[-68.363483178045385,-31.865912254936198],[-68.359304159977384,-31.866922994307672],[-68.360871394829942,-31.869965368595931],[-68.359154561994529,-31.871413280907618],[-68.357106108366381,-31.869400179713878],[-68.35549052540793,-31.869917978696503],[-68.355214981502868,-31.872040721169949],[-68.352297094341367,-31.872329339378886],[-68.354428057786237,-31.876102935727324],[-68.353743235863604,-31.879113708138163],[-68.348556700875676,-31.881696889737153],[-68.352595605597088,-31.883882116612337],[-68.348842985765714,-31.884813753184929],[-68.349041992239961,-31.886857986378182],[-68.347493906710397,-31.887841311269749],[-68.349609129017622,-31.890502259379719],[-68.35002641247317,-31.89860643504165],[-68.345088478662689,-31.899400392387747],[-68.346213634950047,-31.904605240305902],[-68.338782860618323,-31.905740120297985],[-68.337469026728741,-31.907068441178389],[-68.338378541435318,-31.90921753359822],[-68.336623787459175,-31.909188155169957],[-68.335076940780311,-31.913226017646227],[-68.337644071035086,-31.915737797499336],[-68.33897639192503,-31.91515807387432],[-68.337766036813633,-31.911955473181635],[-68.339358521098305,-31.911468134240263],[-68.341732391369277,-31.91448457120681],[-68.346860459191376,-31.913752419744696],[-68.346343969409986,-31.916359400802495],[-68.344596677242336,-31.915257993599841],[-68.342754977739801,-31.917433291430079],[-68.337740260802036,-31.918863790981192],[-68.341884118406156,-31.923153794286126],[-68.333311258366791,-31.931140278478392],[-68.333183959002028,-31.935630595514802],[-68.330052754545903,-31.932336913887415],[-68.323576037213641,-31.933243266860551],[-68.318288850133612,-31.93848987576763],[-68.313738754076297,-31.938647437932474],[-68.314257028315041,-31.942332025584232],[-68.317539334668879,-31.942804872568541],[-68.320456470027921,-31.946158400082918],[-68.315316711077855,-31.944997935194305],[-68.315862381984076,-31.94659901381436],[-68.309802395380984,-31.947941832886979],[-68.302376441154891,-31.953021859281836],[-68.302369373117344,-31.954349384139409],[-68.305611287877113,-31.952748791175559],[-68.313698853274232,-31.954388368861871],[-68.312679863708809,-31.95580904075694],[-68.30822163561605,-31.955466213385481],[-68.307934862196831,-31.957320711272313],[-68.301796079325214,-31.961913340357089],[-68.303023997930694,-31.963492932260003],[-68.305323268681008,-31.960673401643827],[-68.311258659346436,-31.961838593528213],[-68.309522164559041,-31.963993720414969],[-68.310629443228279,-31.966654862628328],[-68.307867947705731,-31.970195172115197],[-68.302298664218881,-31.970369506805827],[-68.301267302740015,-31.974159390270117],[-68.298700492219879,-31.976208639930633],[-68.28931887200045,-31.976075773743965],[-68.289180695935499,-31.978897033353221],[-68.283228152825146,-31.984217524484304],[-68.282873634771462,-31.986037498463094],[-68.285701463861443,-31.987142561616174],[-68.288391160791747,-31.98526444489351],[-68.29107641031429,-31.985503404078983],[-68.290390481236628,-31.990057058494799],[-68.293138906668943,-31.991810401390982],[-68.292747274841517,-31.994207833177633],[-68.289854645499446,-31.996822853180596],[-68.288078476030734,-31.995596553408262],[-68.288195014850245,-31.992879512463514],[-68.285852397810146,-31.993095368702118],[-68.285625263106866,-31.998514209091116],[-68.288117661707517,-32.005210482019933],[-68.283610484747712,-32.005704219173282],[-68.284514659436383,-32.009251477305021],[-68.282549481099323,-32.021531029191927],[-68.276405693025055,-32.02493648367799],[-68.271294146795498,-32.024673108664906],[-68.270627697297186,-32.025849991129931],[-68.275138331483177,-32.026567995840239],[-68.275528920175674,-32.028555048344082],[-68.268638344272759,-32.02886156650186],[-68.266419117783926,-32.03146463637848],[-68.268456295878423,-32.033725865261388],[-68.26530885084054,-32.036583106713493],[-68.2677247054948,-32.043823844833376],[-68.274024848972118,-32.044277398027944],[-68.281008581175143,-32.048251203693468],[-68.280398464775161,-32.049858495472066],[-68.27862769565246,-32.048783501869693],[-68.277177337817548,-32.050851661173859],[-68.271573710259247,-32.052178417943864],[-68.272705719702927,-32.057513373665437],[-68.276125904467989,-32.059166604914928],[-68.270476188441108,-32.066233720536118],[-68.266940326058304,-32.06782406413123],[-68.266397036700837,-32.070183602828649],[-68.268149081655068,-32.073079335267451],[-68.264898743177682,-32.071442142040603],[-68.26246449359931,-32.072386425046645],[-68.262048365260071,-32.074452796043978],[-68.258062386530142,-32.075364272180373],[-68.259588048740099,-32.077403801774814],[-68.258462998149412,-32.087931931503654],[-68.254314088006993,-32.088693863554411],[-68.256540943109982,-32.086103812333896],[-68.255553354956291,-32.085151416599324],[-68.249088951245952,-32.088372913773803],[-68.246247324009076,-32.093693306948083],[-68.242555063766773,-32.095502005427441],[-68.239305455809941,-32.094931159794427],[-68.237665909775075,-32.099066464197513],[-68.232882796438219,-32.100518544278145],[-68.23363935584473,-32.102278899536209],[-68.232189259002823,-32.105163327850263],[-68.216986170271127,-32.110574204417553],[-68.218631256603757,-32.112767627189932],[-68.216591497729652,-32.117403994203173]]]}}
]
}
